     2              NAVIGATION DATA                         RINEX VERSION / TYPE
CCRINEXN V1.6.0 UX  CDDIS               26-DEC-16 17:31     PGM / RUN BY / DATE 
IGS BROADCAST EPHEMERIS FILE                                COMMENT             
    0.8382D-08 -0.1490D-07 -0.5960D-07  0.1192D-06          ION ALPHA           
    0.9421D+05 -0.1311D+06 -0.1311D+06  0.8520D+06          ION BETA            
    0.931322574615D-09 0.177635683940D-14   147456     1929 DELTA-UTC: A0,A1,T,W
    17                                                      LEAP SECONDS        
                                                            END OF HEADER       
29 16 12 25  2  0  0.0 0.636946875602D-03-0.216004991671D-11 0.000000000000D+00
    0.250000000000D+02-0.808437500000D+02 0.380801576200D-08 0.241129054224D+01
   -0.422634184360D-05 0.544129521586D-03 0.984035432339D-05 0.515370537186D+04
    0.720000000000D+04-0.149011611938D-07-0.754396846102D+00 0.242143869400D-07
    0.979767802622D+00 0.198593750000D+03-0.203407149204D+00-0.766710507999D-08
   -0.314298806093D-10 0.100000000000D+01 0.192900000000D+04 0.000000000000D+00
    0.200000000000D+01 0.000000000000D+00-0.102445483208D-07 0.250000000000D+02
    0.000000000000D+00 0.400000000000D+01 0.000000000000D+00 0.000000000000D+00
30 16 12 25  2  0  0.0 0.159594696015D-03 0.454747350886D-12 0.000000000000D+00
    0.840000000000D+02 0.942500000000D+02 0.489127516981D-08-0.264357079794D+01
    0.492297112942D-05 0.235211965628D-02 0.509992241859D-05 0.515373619080D+04
    0.720000000000D+04 0.186264514923D-07-0.284246808816D+01-0.260770320892D-07
    0.950119590923D+00 0.279687500000D+03 0.312198922949D+01-0.829784563858D-08
    0.241081470582D-09 0.100000000000D+01 0.192900000000D+04 0.000000000000D+00
    0.200000000000D+01 0.000000000000D+00 0.372529029846D-08 0.840000000000D+02
    0.306000000000D+04 0.400000000000D+01 0.000000000000D+00 0.000000000000D+00
31 16 12 25  2  0  0.0 0.229103025049D-03-0.216004991671D-11 0.000000000000D+00
    0.940000000000D+02 0.101281250000D+03 0.440482633584D-08-0.281127791399D+01
    0.536441802979D-05 0.855306466110D-02 0.621378421783D-05 0.515362325096D+04
    0.720000000000D+04-0.145286321640D-06-0.287331460970D+01 0.782310962677D-07
    0.969154459231D+00 0.265437500000D+03-0.325453315066D+00-0.792711591048D-08
    0.231081054025D-09 0.100000000000D+01 0.192900000000D+04 0.000000000000D+00
    0.200000000000D+01 0.000000000000D+00-0.135041773319D-07 0.940000000000D+02
    0.000000000000D+00 0.400000000000D+01 0.000000000000D+00 0.000000000000D+00
32 16 12 25  2  0  0.0-0.254370737821D-03-0.154614099301D-10 0.000000000000D+00
    0.930000000000D+02 0.218750000000D+02 0.442804158856D-08 0.939345105643D+00
    0.101141631603D-05 0.613143085502D-03 0.106506049633D-04 0.515368192100D+04
    0.720000000000D+04-0.260770320892D-07 0.232395690618D+01 0.130385160446D-07
    0.958591428518D+00 0.173062500000D+03-0.270758710123D+01-0.787604235449D-08
   -0.242152943785D-09 0.100000000000D+01 0.192900000000D+04 0.000000000000D+00
    0.280000000000D+01 0.000000000000D+00 0.465661287308D-09 0.930000000000D+02
    0.000000000000D+00 0.400000000000D+01 0.000000000000D+00 0.000000000000D+00
 9 16 12 25  3 59 44.0 0.270270742476D-03 0.738964445190D-11 0.000000000000D+00
    0.700000000000D+01 0.238750000000D+02 0.440482633584D-08 0.140907969789D+01
    0.127404928207D-05 0.836156425066D-03 0.101216137409D-04 0.515372721863D+04
    0.143840000000D+05 0.167638063431D-07 0.232147097095D+01-0.186264514923D-08
    0.954049122010D+00 0.180437500000D+03 0.172467392087D+01-0.791140097018D-08
   -0.232509684962D-09 0.100000000000D+01 0.192900000000D+04 0.000000000000D+00
    0.200000000000D+01 0.000000000000D+00 0.139698386192D-08 0.700000000000D+01
    0.942000000000D+04 0.400000000000D+01 0.000000000000D+00 0.000000000000D+00
15 16 12 25  3 59 44.0-0.338482670486D-03-0.113686837722D-11 0.000000000000D+00
    0.000000000000D+00 0.265937500000D+02 0.503878131404D-08 0.384935744107D+00
    0.146776437759D-05 0.897320115473D-02 0.101346522570D-04 0.515372472572D+04
    0.143840000000D+05 0.372529029846D-07 0.226369660410D+01 0.169500708580D-06
    0.929659461511D+00 0.166812500000D+03 0.551931219271D+00-0.827855912093D-08
   -0.314655963827D-09 0.100000000000D+01 0.192900000000D+04 0.000000000000D+00
    0.200000000000D+01 0.000000000000D+00-0.107102096081D-07 0.000000000000D+00
    0.106800000000D+05 0.400000000000D+01 0.000000000000D+00 0.000000000000D+00
30 16 12 25  3 59 44.0 0.159598421305D-03 0.454747350886D-12 0.000000000000D+00
    0.500000000000D+01 0.977500000000D+02 0.480198573627D-08-0.159541767987D+01
    0.488385558128D-05 0.235193769913D-02 0.524334609509D-05 0.515373767090D+04
    0.143840000000D+05 0.316649675369D-07-0.284252769183D+01 0.000000000000D+00
    0.950121347888D+00 0.273875000000D+03 0.312164745232D+01-0.829605984991D-08
    0.251081887140D-09 0.100000000000D+01 0.192900000000D+04 0.000000000000D+00
    0.200000000000D+01 0.000000000000D+00 0.372529029846D-08 0.500000000000D+01
    0.143100000000D+05 0.400000000000D+01 0.000000000000D+00 0.000000000000D+00
31 16 12 25  3 59 44.0 0.229087192565D-03-0.216004991671D-11 0.000000000000D+00
    0.170000000000D+02 0.996562500000D+02 0.444732810621D-08-0.176342463854D+01
    0.497885048389D-05 0.855317583773D-02 0.638328492641D-05 0.515362279510D+04
    0.143840000000D+05-0.121071934700D-06-0.287337305474D+01-0.178813934326D-06
    0.969155601769D+00 0.265250000000D+03-0.325428774615D+00-0.813712465819D-08
    0.338228374284D-09 0.100000000000D+01 0.192900000000D+04 0.000000000000D+00
    0.200000000000D+01 0.000000000000D+00-0.135041773319D-07 0.170000000000D+02
    0.885000000000D+04 0.400000000000D+01 0.000000000000D+00 0.000000000000D+00
32 16 12 25  3 59 44.0-0.254481565207D-03-0.154614099301D-10 0.000000000000D+00
    0.190000000000D+02 0.260000000000D+02 0.433660920861D-08 0.198676292013D+01
    0.139512121677D-05 0.613653101027D-03 0.106953084469D-04 0.515368250656D+04
    0.143840000000D+05-0.428408384323D-07 0.232390032197D+01 0.000000000000D+00
    0.958589684720D+00 0.166906250000D+03-0.270716456514D+01-0.786889919981D-08
   -0.239652839646D-09 0.100000000000D+01 0.192900000000D+04 0.000000000000D+00
    0.200000000000D+01 0.000000000000D+00 0.465661287308D-09 0.190000000000D+02
    0.124200000000D+05 0.400000000000D+01 0.000000000000D+00 0.000000000000D+00
 1 16 12 25  4  0  0.0 0.447207130492D-04 0.125055521494D-11 0.000000000000D+00
    0.320000000000D+02 0.496875000000D+01 0.441446959466D-08-0.956533472899D+00
    0.216066837311D-06 0.607040745672D-02 0.807270407677D-05 0.515369629478D+04
    0.144000000000D+05 0.122934579849D-06 0.241707942026D+00 0.223517417908D-07
    0.966360142333D+00 0.227781250000D+03 0.557215119915D+00-0.794783105907D-08
    0.346443002170D-09 0.100000000000D+01 0.192900000000D+04 0.000000000000D+00
    0.200000000000D+01 0.000000000000D+00 0.512227416039D-08 0.320000000000D+02
    0.141600000000D+05 0.400000000000D+01 0.000000000000D+00 0.000000000000D+00
 2 16 12 25  4  0  0.0 0.504969153553D-03-0.625277607469D-11 0.000000000000D+00
    0.280000000000D+02 0.125312500000D+02 0.512914200001D-08-0.504323660545D+00
    0.786036252975D-06 0.163436409785D-01 0.778958201408D-05 0.515369552231D+04
    0.144000000000D+05-0.447034835815D-07 0.191634626100D+00 0.240281224251D-06
    0.945243380678D+00 0.225812500000D+03-0.205102325863D+01-0.855571347103D-08
    0.382158776846D-09 0.100000000000D+01 0.192900000000D+04 0.000000000000D+00
    0.200000000000D+01 0.000000000000D+00-0.200234353542D-07 0.280000000000D+02
    0.720000000000D+04 0.000000000000D+00 0.000000000000D+00 0.000000000000D+00
 3 16 12 25  4  0  0.0-0.103887636215D-03-0.125055521494D-11 0.000000000000D+00
    0.320000000000D+02-0.242187500000D+02 0.477198448659D-08-0.230228599554D+01
   -0.114552676678D-05 0.414466951042D-03 0.592879951000D-05 0.515354747582D+04
    0.144000000000D+05-0.521540641785D-07 0.128364684742D+01-0.298023223877D-07
    0.959101805526D+00 0.265531250000D+03 0.849567284573D+00-0.811998108695D-08
   -0.182507602174D-09 0.000000000000D+00 0.192900000000D+04 0.000000000000D+00
    0.200000000000D+01 0.000000000000D+00 0.186264514923D-08 0.320000000000D+02
    0.744000000000D+04 0.400000000000D+01 0.000000000000D+00 0.000000000000D+00
 4 16 12 25  4  0  0.0 0.601308420300D-05-0.119371179608D-10 0.000000000000D+00
    0.510000000000D+02 0.105937500000D+02 0.495127766916D-08-0.121577270773D+01
    0.664964318276D-06 0.131868598983D-01 0.794790685177D-05 0.515369559860D+04
    0.144000000000D+05 0.782310962677D-07 0.206187454272D+00 0.318512320519D-06
    0.944419683191D+00 0.217187500000D+03 0.120671767053D+01-0.824820071352D-08
    0.333228166005D-09 0.100000000000D+01 0.192900000000D+04 0.000000000000D+00
    0.200000000000D+01 0.630000000000D+02-0.651925802231D-08 0.510000000000D+02
    0.126600000000D+05 0.400000000000D+01 0.000000000000D+00 0.000000000000D+00
 5 16 12 25  4  0  0.0-0.701397657394D-04 0.216004991671D-11 0.000000000000D+00
    0.470000000000D+02-0.200625000000D+02 0.513592821774D-08 0.197861638870D+01
   -0.107847154141D-05 0.491581717506D-02 0.612996518612D-05 0.515364848137D+04
    0.144000000000D+05-0.745058059692D-07 0.126888905857D+01 0.931322574616D-08
    0.946109318462D+00 0.256281250000D+03 0.565068141699D+00-0.828713090655D-08
   -0.220009164265D-09 0.100000000000D+01 0.192900000000D+04 0.000000000000D+00
    0.200000000000D+01 0.000000000000D+00-0.107102096081D-07 0.470000000000D+02
    0.726000000000D+04 0.400000000000D+01 0.000000000000D+00 0.000000000000D+00
